{
    "links": {
        "self": "http://www.neowsapp.com/rest/v1/neo/3727631?api_key=iIulBulltgU6a56xZRHN4H3l9WmuAYTsLGpBGhQ2"
    },
    "id": "3727631",
    "neo_reference_id": "3727631",
    "name": "(2015 RK83)",
    "designation": "2015 RK83",
    "nasa_jpl_url": "http://ssd.jpl.nasa.gov/sbdb.cgi?sstr=3727631",
    "absolute_magnitude_h": 24.9,
    "estimated_diameter": {
        "kilometers": {
            "estimated_diameter_min": 0.0278326768,
            "estimated_diameter_max": 0.0622357573
        },
        "meters": {
            "estimated_diameter_min": 27.8326768072,
            "estimated_diameter_max": 62.2357573367
        },
        "miles": {
            "estimated_diameter_min": 0.0172944182,
            "estimated_diameter_max": 0.0386714948
        },
        "feet": {
            "estimated_diameter_min": 91.3145593761,
            "estimated_diameter_max": 204.1855621004
        }
    },
    "is_potentially_hazardous_asteroid": false,
    "close_approach_data": [
        {
            "close_approach_date": "2015-09-30",
            "close_approach_date_full": "2015-Sep-30 02:17",
            "epoch_date_close_approach": 1443579420000,
            "relative_velocity": {
                "kilometers_per_second": "3.7012652972",
                "kilometers_per_hour": "13324.5550699825",
                "miles_per_hour": "8279.3603433455"
            },
            "miss_distance": {
                "astronomical": "0.1416917018",
                "lunar": "55.1180720002",
                "kilometers": "21196776.785955166",
                "miles": "13171066.3443306508"
            },
            "orbiting_body": "Earth"
        }
    ],
    "orbital_data": {
        "orbit_id": "6",
        "orbit_determination_date": "2017-04-06 08:31:57",
        "first_observation_date": "2015-09-12",
        "last_observation_date": "2015-10-03",
        "data_arc_in_days": 21,
        "observations_used": 20,
        "orbit_uncertainty": "7",
        "minimum_orbit_intersection": ".14164",
        "jupiter_tisserand_invariant": "4.543",
        "epoch_osculation": "2459000.5",
        "eccentricity": ".24011458980739",
        "semi_major_axis": "1.480251869352627",
        "inclination": "6.810578551591177",
        "ascending_node_longitude": "164.2624192611922",
        "orbital_period": "657.8120945688493",
        "perihelion_distance": "1.124821798931399",
        "perihelion_argument": "219.225132578974",
        "aphelion_distance": "1.835681939773856",
        "perihelion_time": "2459288.380031148783",
        "mean_anomaly": "202.4522563977958",
        "mean_motion": ".5472687458505233",
        "equinox": "J2000",
        "orbit_class": {
            "orbit_class_type": "AMO",
            "orbit_class_description": "Near-Earth asteroid orbits similar to that of 1221 Amor",
            "orbit_class_range": "1.017 AU < q (perihelion) < 1.3 AU"
        }
    },
    "is_sentry_object": false
}